GLOBALSTAR M024 [-]     
1 25883U 99043A   23361.57059899 -.00000155  00000+0 -31862-2 0  9992
2 25883  51.9986 153.6557 0000337 337.4658  99.1972 11.10156841 55158
GLOBALSTAR M027 [-]     
1 25884U 99043B   23361.03644363 -.00000049  00000+0  55235-3 0  9992
2 25884  52.0183 217.6034 0020574 199.7203 160.2796 11.04366971 81783
GLOBALSTAR M054 [-]     
1 25885U 99043C   23361.44274580 -.00000074  00000+0 -74015-4 0  9995
2 25885  52.0153  74.2340 0003823 329.3948 114.4314 11.39202688 57763
GLOBALSTAR M053 [-]     
1 25886U 99043D   23361.29029477 -.00000058  00000+0  29800-3 0  9994
2 25886  52.0013 351.8562 0003275 250.2544 210.8782 11.27652675 58767
GLOBALSTAR M058 [-]     
1 25907U 99049A   23361.58027243 -.00000094  00000+0 -13029-3 0  9992
2 25907  51.9939 104.6899 0001725 323.8133  36.2585 11.93171706477368
GLOBALSTAR M050 [-]     
1 25908U 99049B   23361.63402038 -.00000147  00000+0 -66769-3 0  9996
2 25908  51.9958 152.3812 0009626  47.9209  34.7710 12.07424821 83250
GLOBALSTAR M033 [-]     
1 25909U 99049C   23361.36348388 -.00000091  00000+0  76875-5 0  9992
2 25909  51.9926  62.1063 0011346 244.8200 115.1470 12.20261816470089
GLOBALSTAR M055 [-]     
1 25910U 99049D   23361.44650594 -.00000089  00000+0  47330-4 0  9998
2 25910  52.0019  98.7865 0007756  98.1354 262.0378 12.29392466102144
